{"type": "FeatureCollection", "features": [ {"type": "Feature", "properties": {"norad_id": 43010, "name": "FENGYUN 3D", "group": "weather", "lat": 58.67124188150544, "lon": -71.2378251153257, "alt_km": 821.1301713283929, "timestamp": "2025-12-03T15:48:02.748396+00:00", "meta": {"OBJECT_NAME": "FENGYUN 3D", "OBJECT_ID": "2017-072A", "EPOCH": "2025-12-03T08:45:14.012928", "MEAN_MOTION": 14.19679331, "ECCENTRICITY": 5.96e-05, "INCLINATION": 98.988, "RA_OF_ASC_NODE": 303.5352, "ARG_OF_PERICENTER": 221.3514, "MEAN_ANOMALY": 138.7617, "EPHEMERIS_TYPE": 0, "CLASSIFICATION_TYPE": "U", "NORAD_CAT_ID": 43010, "ELEMENT_SET_NO": 999, "REV_AT_EPOCH": 41720, "BSTAR": 9.9937712e-05, "MEAN_MOTION_DOT": 1.65e-06, "MEAN_MOTION_DDOT": 0}, "tle": {"line1": "1 43010U 17072A   25337.36474552  .00000165  00000+0  99938-4 0  9994", "line2": "2 43010  98.9880 303.5352 0000596 221.3514 138.7617 14.19679331417202"}}, "geometry": {"type": "Point", "coordinates": [-71.2378251153257, 58.67124188150544]}}, {"type": "Feature", "properties": {"norad_id": 43013, "name": "NOAA 20 (JPSS-1)", "group": "weather", "lat": -37.2009157836165, "lon": 87.33474126148978, "alt_km": 833.9893193159724, "timestamp": "2025-12-03T15:48:02.748406+00:00", "meta": {"OBJECT_NAME": "NOAA 20 (JPSS-1)", "OBJECT_ID": "2017-073A", "EPOCH": "2025-12-03T08:00:44.205408", "MEAN_MOTION": 14.19521658, "ECCENTRICITY": 0.00020706, "INCLINATION": 98.7585, "RA_OF_ASC_NODE": 273.7341, "ARG_OF_PERICENTER": 100.6703, "MEAN_ANOMALY": 259.4707, "EPHEMERIS_TYPE": 0, "CLASSIFICATION_TYPE": "U", "NORAD_CAT_ID": 43013, "ELEMENT_SET_NO": 999, "REV_AT_EPOCH": 41668, "BSTAR": 8.8000204e-05, "MEAN_MOTION_DOT": 1.41e-06, "MEAN_MOTION_DDOT": 0}, "tle": {"line1": "1 43013U 17073A   25337.33384497  .00000141  00000+0  88000-4 0  9995", "line2": "2 43013  98.7585 273.7341 0002070 100.6703 259.4707 14.19521658416689"}}, "geometry": {"type": "Point", "coordinates": [87.33474126148978, -37.2009157836165]}}, {"type": "Feature", "properties": {"norad_id": 43226, "name": "GOES 17", "group": "weather", "lat": 0.3014696493537851, "lon": -139.79736073377984, "alt_km": 35776.9219147735, "timestamp": "2025-12-03T15:48:02.748416+00:00", "meta": {"OBJECT_NAME": "GOES 17", "OBJECT_ID": "2018-022A", "EPOCH": "2025-12-03T06:40:38.582976", "MEAN_MOTION": 1.00271383, "ECCENTRICITY": 0.0003416, "INCLINATION": 0.4333, "RA_OF_ASC_NODE": 89.3344, "ARG_OF_PERICENTER": 181.2643, "MEAN_ANOMALY": 172.4325, "EPHEMERIS_TYPE": 0, "CLASSIFICATION_TYPE": "U", "NORAD_CAT_ID": 43226, "ELEMENT_SET_NO": 999, "REV_AT_EPOCH": 2845, "BSTAR": 0, "MEAN_MOTION_DOT": -1.64e-06, "MEAN_MOTION_DDOT": 0}, "tle": {"line1": "1 43226U 18022A   25337.27822434 -.00000164  00000+0  00000+0 0  9992", "line2": "2 43226   0.4333  89.3344 0003416 181.2643 172.4325  1.00271383 28450"}}, "geometry": {"type": "Point", "coordinates": [-139.79736073377984, 0.3014696493537851]}}, {"type": "Feature", "properties": {"norad_id": 43491, "name": "FENGYUN 2H", "group": "weather", "lat": -1.9740996667907162, "lon": 29.13930838530438, "alt_km": 35796.52525643686, "timestamp": "2025-12-03T15:48:02.748427+00:00", "meta": {"OBJECT_NAME": "FENGYUN 2H", "OBJECT_ID": "2018-050A", "EPOCH": "2025-12-03T02:08:49.697376", "MEAN_MOTION": 1.00271438, "ECCENTRICITY": 0.00028871, "INCLINATION": 2.5239, "RA_OF_ASC_NODE": 81.4356, "ARG_OF_PERICENTER": 162.214, "MEAN_ANOMALY": 300.1007, "EPHEMERIS_TYPE": 0, "CLASSIFICATION_TYPE": "U", "NORAD_CAT_ID": 43491, "ELEMENT_SET_NO": 999, "REV_AT_EPOCH": 2747, "BSTAR": 0, "MEAN_MOTION_DOT": -1.11e-06, "MEAN_MOTION_DDOT": 0}, "tle": {"line1": "1 43491U 18050A   25337.08946409 -.00000111  00000+0  00000+0 0  9997", "line2": "2 43491   2.5239  81.4356 0002887 162.2140 300.1007  1.00271438 27479"}}, "geometry": {"type": "Point", "coordinates": [29.13930838530438, -1.9740996667907162]}}, {"type": "Feature", "properties": {"norad_id": 43689, "name": "METOP-C", "group": "weather", "lat": -64.57936072643673, "lon": 54.34769045602782, "alt_km": 828.1122686377221, "timestamp": "2025-12-03T15:48:02.748438+00:00", "meta": {"OBJECT_NAME": "METOP-C", "OBJECT_ID": "2018-087A", "EPOCH": "2025-12-03T07:39:51.681024", "MEAN_MOTION": 14.21506069, "ECCENTRICITY": 0.00017071, "INCLINATION": 98.6943, "RA_OF_ASC_NODE": 35.2327, "ARG_OF_PERICENTER": 57.6983, "MEAN_ANOMALY": 302.436, "EPHEMERIS_TYPE": 0, "CLASSIFICATION_TYPE": "U", "NORAD_CAT_ID": 43689, "ELEMENT_SET_NO": 999, "REV_AT_EPOCH": 36700, "BSTAR": 0.0001240808, "MEAN_MOTION_DOT": 2.28e-06, "MEAN_MOTION_DDOT": 0}, "tle": {"line1": "1 43689U 18087A   25337.31934816  .00000228  00000+0  12408-3 0  9998", "line2": "2 43689  98.6943  35.2327 0001707  57.6983 302.4360 14.21506069367004"}}, "geometry": {"type": "Point", "coordinates": [54.34769045602782, -64.57936072643673]}}, {"type": "Feature", "properties": {"norad_id": 43823, "name": "GEO-KOMPSAT-2A", "group": "weather", "lat": 0.015353645134389688, "lon": 77.95841634349136, "alt_km": 35788.77560862614, "timestamp": "2025-12-03T15:48:02.748449+00:00", "meta": {"OBJECT_NAME": "GEO-KOMPSAT-2A", "OBJECT_ID": "2018-100A", "EPOCH": "2025-12-02T22:57:21.193920", "MEAN_MOTION": 1.00268627, "ECCENTRICITY": 5.345e-05, "INCLINATION": 0.0243, "RA_OF_ASC_NODE": 71.4005, "ARG_OF_PERICENTER": 145.3894, "MEAN_ANOMALY": 327.8406, "EPHEMERIS_TYPE": 0, "CLASSIFICATION_TYPE": "U", "NORAD_CAT_ID": 43823, "ELEMENT_SET_NO": 999, "REV_AT_EPOCH": 2566, "BSTAR": 0, "MEAN_MOTION_DOT": 0, "MEAN_MOTION_DDOT": 0}, "tle": {"line1": "1 43823U 18100A   25336.95649530  .00000000  00000+0  00000+0 0  9998", "line2": "2 43823   0.0243  71.4005 0000534 145.3894 327.8406  1.00268627 25665"}}, "geometry": {"type": "Point", "coordinates": [77.95841634349136, 0.015353645134389688]}}, {"type": "Feature", "properties": {"norad_id": 44387, "name": "METEOR-M2 2", "group": "weather", "lat": -78.69593004669002, "lon": 8.864691029054681, "alt_km": 818.4253284073056, "timestamp": "2025-12-03T15:48:02.748459+00:00", "meta": {"OBJECT_NAME": "METEOR-M2 2", "OBJECT_ID": "2019-038A", "EPOCH": "2025-12-03T07:45:36.048096", "MEAN_MOTION": 14.24285004, "ECCENTRICITY": 8.71e-05, "INCLINATION": 98.8963, "RA_OF_ASC_NODE": 316.9374, "ARG_OF_PERICENTER": 167.8561, "MEAN_ANOMALY": 192.2639, "EPHEMERIS_TYPE": 0, "CLASSIFICATION_TYPE": "U", "NORAD_CAT_ID": 44387, "ELEMENT_SET_NO": 999, "REV_AT_EPOCH": 33341, "BSTAR": 0.00013791593, "MEAN_MOTION_DOT": 2.73e-06, "MEAN_MOTION_DDOT": 0}, "tle": {"line1": "1 44387U 19038A   25337.32333389  .00000273  00000+0  13792-3 0  9997", "line2": "2 44387  98.8963 316.9374 0000871 167.8561 192.2639 14.24285004333410"}}, "geometry": {"type": "Point", "coordinates": [8.864691029054681, -78.69593004669002]}}, {"type": "Feature", "properties": {"norad_id": 47719, "name": "ARKTIKA-M 1", "group": "weather", "lat": 42.151035240183546, "lon": 112.46954062943776, "alt_km": 22025.99813693789, "timestamp": "2025-12-03T15:48:02.748471+00:00", "meta": {"OBJECT_NAME": "ARKTIKA-M 1", "OBJECT_ID": "2021-016A", "EPOCH": "2025-12-01T02:41:41.634816", "MEAN_MOTION": 2.00613156, "ECCENTRICITY": 0.71974708, "INCLINATION": 63.1756, "RA_OF_ASC_NODE": 85.6045, "ARG_OF_PERICENTER": 269.084, "MEAN_ANOMALY": 15.7076, "EPHEMERIS_TYPE": 0, "CLASSIFICATION_TYPE": "U", "NORAD_CAT_ID": 47719, "ELEMENT_SET_NO": 999, "REV_AT_EPOCH": 3481, "BSTAR": 0, "MEAN_MOTION_DOT": -1.2e-07, "MEAN_MOTION_DDOT": 0}, "tle": {"line1": "1 47719U 21016A   25335.11228744 -.00000012  00000+0  00000+0 0  9997", "line2": "2 47719  63.1756  85.6045 7197470 269.0840  15.7076  2.00613156 34816"}}, "geometry": {"type": "Point", "coordinates": [112.46954062943776, 42.151035240183546]}}, {"type": "Feature", "properties": {"norad_id": 49008, "name": "FENGYUN 3E", "group": "weather", "lat": 20.031218933308228, "lon": -24.93075423540508, "alt_km": 825.4510534501333, "timestamp": "2025-12-03T15:48:02.748483+00:00", "meta": {"OBJECT_NAME": "FENGYUN 3E", "OBJECT_ID": "2021-062A", "EPOCH": "2025-12-03T07:14:57.753312", "MEAN_MOTION": 14.19877969, "ECCENTRICITY": 7.61e-05, "INCLINATION": 98.7476, "RA_OF_ASC_NODE": 337.9352, "ARG_OF_PERICENTER": 325.4267, "MEAN_ANOMALY": 34.686, "EPHEMERIS_TYPE": 0, "CLASSIFICATION_TYPE": "U", "NORAD_CAT_ID": 49008, "ELEMENT_SET_NO": 999, "REV_AT_EPOCH": 22878, "BSTAR": 4.7022925e-05, "MEAN_MOTION_DOT": 5.6e-07, "MEAN_MOTION_DDOT": 0}, "tle": {"line1": "1 49008U 21062A   25337.30205733  .00000056  00000+0  47023-4 0  9995", "line2": "2 49008  98.7476 337.9352 0000761 325.4267  34.6860 14.19877969228784"}}, "geometry": {"type": "Point", "coordinates": [-24.93075423540508, 20.031218933308228]}}, {"type": "Feature", "properties": {"norad_id": 51850, "name": "GOES 18", "group": "weather", "lat": 0.008685341978091397, "lon": 172.71977135489047, "alt_km": 35787.822981683836, "timestamp": "2025-12-03T15:48:02.748494+00:00", "meta": {"OBJECT_NAME": "GOES 18", "OBJECT_ID": "2022-021A", "EPOCH": "2025-12-03T06:15:22.453056", "MEAN_MOTION": 1.00270211, "ECCENTRICITY": 7.378e-05, "INCLINATION": 0.0018, "RA_OF_ASC_NODE": 79.492, "ARG_OF_PERICENTER": 209.0155, "MEAN_ANOMALY": 100.6869, "EPHEMERIS_TYPE": 0, "CLASSIFICATION_TYPE": "U", "NORAD_CAT_ID": 51850, "ELEMENT_SET_NO": 999, "REV_AT_EPOCH": 462, "BSTAR": 0, "MEAN_MOTION_DOT": 1.16e-06, "MEAN_MOTION_DDOT": 0}, "tle": {"line1": "1 51850U 22021A   25337.26067654  .00000116  00000+0  00000+0 0  9998", "line2": "2 51850   0.0018  79.4920 0000737 209.0155 100.6869  1.00270211  4626"}}, "geometry": {"type": "Point", "coordinates": [172.71977135489047, 0.008685341978091397]}}]}